{"type": "FeatureCollection", "features": [{"type": "Feature", "id": "obj_20260520_0540_00002", "properties": {"object_id": "obj_20260520_0540_00002", "scan_time": "2026-05-20T07:20:00Z"}, "geometry": {"type": "Polygon", "coordinates": [[[101.2489, 14.0285], [101.2089, 14.0485], [101.1489, 14.0485], [101.0589, 14.1385], [101.0389, 14.1785], [101.0389, 14.2785], [101.0589, 14.2985], [101.0589, 14.3385], [101.0889, 14.3485], [101.1189, 14.3985], [101.0589, 14.5185], [101.0589, 14.5785], [101.0789, 14.5985], [101.0589, 14.6185], [101.0989, 14.6585], [101.0989, 14.6785], [101.1689, 14.7285], [101.2089, 14.7485], [101.2689, 14.7485], [101.2889, 14.7685], [101.3089, 14.7485], [101.3689, 14.7485], [101.4089, 14.6885], [101.4389, 14.6785], [101.4789, 14.5985], [101.4789, 14.4785], [101.4589, 14.4385], [101.3789, 14.3785], [101.4189, 14.2985], [101.4189, 14.2585], [101.4389, 14.2385], [101.4189, 14.2185], [101.4389, 14.1985], [101.4189, 14.1585], [101.3589, 14.0985], [101.3489, 14.0685], [101.2689, 14.0485], [101.2489, 14.0285]]]}}, {"type": "Feature", "id": "obj_20260520_0540_00003", "properties": {"object_id": "obj_20260520_0540_00003", "scan_time": "2026-05-20T07:20:00Z"}, "geometry": {"type": "Polygon", "coordinates": [[[100.4841, 13.2508], [100.3441, 13.2508], [100.2241, 13.3108], [100.1541, 13.4008], [100.1541, 13.4408], [100.1341, 13.4608], [100.1341, 13.6008], [100.1941, 13.6808], [100.1941, 13.7008], [100.2441, 13.7508], [100.3241, 13.7908], [100.4041, 13.7908], [100.4241, 13.8308], [100.4841, 13.8708], [100.5841, 13.8708], [100.6341, 13.8208], [100.6341, 13.7808], [100.6541, 13.7608], [100.6341, 13.6808], [100.6741, 13.6008], [100.6741, 13.4208], [100.6541, 13.3808], [100.5641, 13.2908], [100.4841, 13.2508]]]}}, {"type": "Feature", "id": "obj_20260520_0550_00004", "properties": {"object_id": "obj_20260520_0550_00004", "scan_time": "2026-05-20T07:20:00Z"}, "geometry": {"type": "Polygon", "coordinates": [[[102.0888, 13.8651], [102.0688, 13.8851], [102.0488, 13.8651], [102.0288, 13.8851], [101.9688, 13.8851], [101.8888, 13.9451], [101.8688, 13.9451], [101.8388, 13.9751], [101.8388, 13.9951], [101.7988, 14.0151], [101.7788, 14.0951], [101.7588, 14.1151], [101.7588, 14.1751], [101.7388, 14.1951], [101.7588, 14.2351], [101.7588, 14.2951], [101.7988, 14.3751], [101.9088, 14.4851], [101.9888, 14.5051], [102.0088, 14.5251], [102.1488, 14.5251], [102.1688, 14.5051], [102.2488, 14.4851], [102.3588, 14.3751], [102.3788, 14.2951], [102.3988, 14.2751], [102.3988, 14.1151], [102.3388, 13.9951], [102.2288, 13.9051], [102.1888, 13.8851], [102.1088, 13.8851], [102.0888, 13.8651]]]}}, {"type": "Feature", "id": "obj_20260520_0550_00005", "properties": {"object_id": "obj_20260520_0550_00005", "scan_time": "2026-05-20T07:20:00Z"}, "geometry": {"type": "Polygon", "coordinates": [[[102.4652, 13.254], [102.3252, 13.254], [102.2552, 13.304], [102.1952, 13.424], [102.1952, 13.524], [102.2352, 13.604], [102.3252, 13.674], [102.3852, 13.674], [102.4052, 13.694], [102.4252, 13.674], [102.4852, 13.674], [102.5252, 13.654], [102.6152, 13.564], [102.6152, 13.504], [102.6352, 13.484], [102.6152, 13.464], [102.6352, 13.424], [102.5752, 13.344], [102.5752, 13.324], [102.5252, 13.274], [102.4852, 13.274], [102.4652, 13.254]]]}}, {"type": "Feature", "id": "obj_20260520_0700_00008", "properties": {"object_id": "obj_20260520_0700_00008", "scan_time": "2026-05-20T07:20:00Z"}, "geometry": {"type": "Polygon", "coordinates": [[[102.1092, 12.7016], [102.0992, 12.7116], [102.0892, 12.7216], [102.0692, 12.7216], [102.0492, 12.7216], [102.0392, 12.7316], [102.0292, 12.7416], [102.0192, 12.7516], [102.0092, 12.7616], [101.9992, 12.7716], [101.9992, 12.7916], [101.9892, 12.8016], [101.9792, 12.8116], [101.9792, 12.8316], [101.9792, 12.8516], [101.9792, 12.8716], [101.9892, 12.8816], [101.9992, 12.8916], [101.9992, 12.9116], [102.0092, 12.9216], [102.0192, 12.9316], [102.0292, 12.9416], [102.0392, 12.9516], [102.0492, 12.9616], [102.0692, 12.9616], [102.0892, 12.9616], [102.1092, 12.9616], [102.1292, 12.9616], [102.1492, 12.9616], [102.1692, 12.9616], [102.1792, 12.9516], [102.1892, 12.9416], [102.1992, 12.9316], [102.2092, 12.9216], [102.2192, 12.9116], [102.2292, 12.9016], [102.2392, 12.8916], [102.2392, 12.8716], [102.2392, 12.8516], [102.2392, 12.8316], [102.2392, 12.8116], [102.2392, 12.7916], [102.2292, 12.7816], [102.2192, 12.7716], [102.2092, 12.7616], [102.1992, 12.7516], [102.1892, 12.7416], [102.1792, 12.7316], [102.1692, 12.7216], [102.1492, 12.7216], [102.1292, 12.7216], [102.1192, 12.7116], [102.1092, 12.7016]]]}}, {"type": "Feature", "id": "obj_20260520_0710_00009", "properties": {"object_id": "obj_20260520_0710_00009", "scan_time": "2026-05-20T07:20:00Z"}, "geometry": {"type": "Polygon", "coordinates": [[[102.0991, 14.6416], [102.0791, 14.6416], [102.0591, 14.6416], [102.0391, 14.6416], [102.0291, 14.6516], [102.0291, 14.6716], [102.0191, 14.6816], [102.0091, 14.6916], [102.0091, 14.7116], [102.0091, 14.7316], [102.0091, 14.7516], [102.0191, 14.7616], [102.0291, 14.7716], [102.0391, 14.7816], [102.0491, 14.7916], [102.0591, 14.8016], [102.0791, 14.8016], [102.0991, 14.8016], [102.1191, 14.8016], [102.1291, 14.7916], [102.1391, 14.7816], [102.1491, 14.7716], [102.1491, 14.7516], [102.1591, 14.7416], [102.1691, 14.7316], [102.1691, 14.7116], [102.1591, 14.7016], [102.1491, 14.6916], [102.1491, 14.6716], [102.1391, 14.6616], [102.1191, 14.6616], [102.1091, 14.6516], [102.0991, 14.6416]]]}}, {"type": "Feature", "id": "obj_20260520_0720_00010", "properties": {"object_id": "obj_20260520_0720_00010", "scan_time": "2026-05-20T07:20:00Z"}, "geometry": {"type": "Polygon", "coordinates": [[[101.7325, 13.8265], [101.7225, 13.8365], [101.7125, 13.8465], [101.7025, 13.8565], [101.7025, 13.8765], [101.7125, 13.8865], [101.7225, 13.8965], [101.7325, 13.9065], [101.7525, 13.9065], [101.7626, 13.8965], [101.7626, 13.8765], [101.7626, 13.8565], [101.7525, 13.8465], [101.7425, 13.8365], [101.7325, 13.8265]]]}}]}